STARLINK-5494           
1 55650U 23021Y   26068.70225244  .00000226  00000+0  26767-4 0  9998
2 55650  70.0012 184.4107 0003019 264.8405  95.2409 14.98329625168799
ICEYE-X48               
1 63253U 25052AV  26068.70765702  .00004541  00000+0  39589-3 0  9999
2 63253  97.6979 322.3976 0002688 141.7433 218.3980 14.97356709 53782
